[{"OBJECT_NAME":"STARLINK-5035","OBJECT_ID":"2022-119M","EPOCH":"2026-03-09T22:44:58.852896","MEAN_MOTION":15.08839439,"ECCENTRICITY":0.00011234,"INCLINATION":53.2187,"RA_OF_ASC_NODE":322.9593,"ARG_OF_PERICENTER":100.2696,"MEAN_ANOMALY":259.8422,"EPHEMERIS_TYPE":0,"CLASSIFICATION_TYPE":"U","NORAD_CAT_ID":53897,"ELEMENT_SET_NO":999,"REV_AT_EPOCH":19172,"BSTAR":5.4099308e-5,"MEAN_MOTION_DOT":5.73e-6,"MEAN_MOTION_DDOT":0},{"OBJECT_NAME":"LEMUR-2-AHMED-ASRAR","OBJECT_ID":"2024-149DN","EPOCH":"2026-03-09T17:35:01.338432","MEAN_MOTION":15.10376432,"ECCENTRICITY":0.00016334,"INCLINATION":97.7021,"RA_OF_ASC_NODE":152.9847,"ARG_OF_PERICENTER":18.5035,"MEAN_ANOMALY":341.6253,"EPHEMERIS_TYPE":0,"CLASSIFICATION_TYPE":"U","NORAD_CAT_ID":60576,"ELEMENT_SET_NO":999,"REV_AT_EPOCH":8554,"BSTAR":0.0007977347,"MEAN_MOTION_DOT":0.00013045,"MEAN_MOTION_DDOT":0}]
